{
  "type": "FeatureCollection",
  "features": [
    {
      "type": "Feature",
      "properties": {
        "norad_id": 66505,
        "name": "STARLINK-34766",
        "group": "last-30-days",
        "lat": -42.41073860136961,
        "lon": 73.2705699846583,
        "alt_km": 415.4968089511367,
        "timestamp": "2025-12-08T03:50:05.783448+00:00",
        "meta_object_name": "STARLINK-34766",
        "meta_object_id": "2025-263W",
        "meta_epoch": "2025-12-07T06:00:04.999968",
        "meta_mean_motion": 15.55000183,
        "meta_eccentricity": 0.00013945,
        "meta_inclination": 43.0002,
        "meta_ra_of_asc_node": 157.2112,
        "meta_arg_of_pericenter": 264.8764,
        "meta_mean_anomaly": 321.3588,
        "meta_ephemeris_type": 0,
        "meta_classification_type": "U",
        "meta_norad_cat_id": 66505,
        "meta_element_set_no": 999,
        "meta_rev_at_epoch": 475,
        "meta_bstar": -0.033906423,
        "meta_mean_motion_dot": -0.02078846,
        "meta_mean_motion_ddot": 0,
        "tle_line1": "1 66505U 25263W   25341.25005787 -.02078846  00000+0 -33906-1 0  9997",
        "tle_line2": "2 66505  43.0002 157.2112 0001394 264.8764 321.3588 15.55000183  4750"
      },
      "geometry": {
        "type": "Point",
        "coordinates": [
          73.2705699846583,
          -42.41073860136961
        ]
      }
    },
    {
      "type": "Feature",
      "properties": {
        "norad_id": 66506,
        "name": "STARLINK-34765",
        "group": "last-30-days",
        "lat": -42.124316688753545,
        "lon": 75.82494702426682,
        "alt_km": 415.55382518084934,
        "timestamp": "2025-12-08T03:50:05.783458+00:00",
        "meta_object_name": "STARLINK-34765",
        "meta_object_id": "2025-263X",
        "meta_epoch": "2025-12-07T06:00:04.999968",
        "meta_mean_motion": 15.54998467,
        "meta_eccentricity": 0.00013299,
        "meta_inclination": 43.0003,
        "meta_ra_of_asc_node": 157.2073,
        "meta_arg_of_pericenter": 263.3675,
        "meta_mean_anomaly": 324.7876,
        "meta_ephemeris_type": 0,
        "meta_classification_type": "U",
        "meta_norad_cat_id": 66506,
        "meta_element_set_no": 999,
        "meta_rev_at_epoch": 475,
        "meta_bstar": -0.03389755,
        "meta_mean_motion_dot": -0.02078202,
        "meta_mean_motion_ddot": 0,
        "tle_line1": "1 66506U 25263X   25341.25005787 -.02078202  00000+0 -33898-1 0  9994",
        "tle_line2": "2 66506  43.0003 157.2073 0001329 263.3675 324.7876 15.54998467  4758"
      },
      "geometry": {
        "type": "Point",
        "coordinates": [
          75.82494702426682,
          -42.124316688753545
        ]
      }
    },
    {
      "type": "Feature",
      "properties": {
        "norad_id": 66507,
        "name": "STARLINK-34767",
        "group": "last-30-days",
        "lat": -41.38967480255922,
        "lon": 80.81381299017943,
        "alt_km": 415.5026417419949,
        "timestamp": "2025-12-08T03:50:05.783468+00:00",
        "meta_object_name": "STARLINK-34767",
        "meta_object_id": "2025-263Y",
        "meta_epoch": "2025-12-07T06:00:04.999968",
        "meta_mean_motion": 15.55004505,
        "meta_eccentricity": 0.00015108,
        "meta_inclination": 43.0001,
        "meta_ra_of_asc_node": 157.1954,
        "meta_arg_of_pericenter": 261.6604,
        "meta_mean_anomaly": 330.33,
        "meta_ephemeris_type": 0,
        "meta_classification_type": "U",
        "meta_norad_cat_id": 66507,
        "meta_element_set_no": 999,
        "meta_rev_at_epoch": 475,
        "meta_bstar": -0.034162052,
        "meta_mean_motion_dot": -0.0209317,
        "meta_mean_motion_ddot": 0,
        "tle_line1": "1 66507U 25263Y   25341.25005787 -.02093170  00000+0 -34162-1 0  9991",
        "tle_line2": "2 66507  43.0001 157.1954 0001510 261.6604 330.3300 15.55004505  4756"
      },
      "geometry": {
        "type": "Point",
        "coordinates": [
          80.81381299017943,
          -41.38967480255922
        ]
      }
    },
    {
      "type": "Feature",
      "properties": {
        "norad_id": 66508,
        "name": "STARLINK-35608",
        "group": "last-30-days",
        "lat": -39.8769054100496,
        "lon": 88.13599496085345,
        "alt_km": 415.5617601753538,
        "timestamp": "2025-12-08T03:50:05.783482+00:00",
        "meta_object_name": "STARLINK-35608",
        "meta_object_id": "2025-263Z",
        "meta_epoch": "2025-12-07T06:00:04.999968",
        "meta_mean_motion": 15.55000176,
        "meta_eccentricity": 0.0001343,
        "meta_inclination": 43.0004,
        "meta_ra_of_asc_node": 157.183,
        "meta_arg_of_pericenter": 261.6571,
        "meta_mean_anomaly": 336.084,
        "meta_ephemeris_type": 0,
        "meta_classification_type": "U",
        "meta_norad_cat_id": 66508,
        "meta_element_set_no": 999,
        "meta_rev_at_epoch": 475,
        "meta_bstar": -0.033969631,
        "meta_mean_motion_dot": -0.02082263,
        "meta_mean_motion_ddot": 0,
        "tle_line1": "1 66508U 25263Z   25341.25005787 -.02082263  00000+0 -33970-1 0  9999",
        "tle_line2": "2 66508  43.0004 157.1830 0001343 261.6571 336.0840 15.55000176  4752"
      },
      "geometry": {
        "type": "Point",
        "coordinates": [
          88.13599496085345,
          -39.8769054100496
        ]
      }
    },
    {
      "type": "Feature",
      "properties": {
        "norad_id": 66509,
        "name": "STARLINK-35598",
        "group": "last-30-days",
        "lat": -37.21255418653647,
        "lon": 97.24024939535393,
        "alt_km": 415.40816704616736,
        "timestamp": "2025-12-08T03:50:05.783492+00:00",
        "meta_object_name": "STARLINK-35598",
        "meta_object_id": "2025-263AA",
        "meta_epoch": "2025-12-07T06:00:04.999968",
        "meta_mean_motion": 15.55008372,
        "meta_eccentricity": 0.0001694,
        "meta_inclination": 43.0001,
        "meta_ra_of_asc_node": 157.1607,
        "meta_arg_of_pericenter": 261.2151,
        "meta_mean_anomaly": 344.1951,
        "meta_ephemeris_type": 0,
        "meta_classification_type": "U",
        "meta_norad_cat_id": 66509,
        "meta_element_set_no": 999,
        "meta_rev_at_epoch": 475,
        "meta_bstar": -0.034363522,
        "meta_mean_motion_dot": -0.02104542,
        "meta_mean_motion_ddot": 0,
        "tle_line1": "1 66509U 25263AA  25341.25005787 -.02104542  00000+0 -34364-1 0  9993",
        "tle_line2": "2 66509  43.0001 157.1607 0001694 261.2151 344.1951 15.55008372  4750"
      },
      "geometry": {
        "type": "Point",
        "coordinates": [
          97.24024939535393,
          -37.21255418653647
        ]
      }
    },
    {
      "type": "Feature",
      "properties": {
        "norad_id": 66510,
        "name": "STARLINK-35600",
        "group": "last-30-days",
        "lat": -39.28560156163984,
        "lon": 90.44510795342676,
        "alt_km": 415.51639219279514,
        "timestamp": "2025-12-08T03:50:05.783502+00:00",
        "meta_object_name": "STARLINK-35600",
        "meta_object_id": "2025-263AB",
        "meta_epoch": "2025-12-07T06:00:04.999968",
        "meta_mean_motion": 15.55005387,
        "meta_eccentricity": 0.00015548,
        "meta_inclination": 43.0002,
        "meta_ra_of_asc_node": 157.1754,
        "meta_arg_of_pericenter": 260.0223,
        "meta_mean_anomaly": 339.6391,
        "meta_ephemeris_type": 0,
        "meta_classification_type": "U",
        "meta_norad_cat_id": 66510,
        "meta_element_set_no": 999,
        "meta_rev_at_epoch": 475,
        "meta_bstar": -0.034266078,
        "meta_mean_motion_dot": -0.02098931,
        "meta_mean_motion_ddot": 0,
        "tle_line1": "1 66510U 25263AB  25341.25005787 -.02098931  00000+0 -34266-1 0  9990",
        "tle_line2": "2 66510  43.0002 157.1754 0001554 260.0223 339.6391 15.55005387  4758"
      },
      "geometry": {
        "type": "Point",
        "coordinates": [
          90.44510795342676,
          -39.28560156163984
        ]
      }
    },
    {
      "type": "Feature",
      "properties": {
        "norad_id": 66511,
        "name": "STARLINK-35444",
        "group": "last-30-days",
        "lat": -37.9461720669185,
        "lon": 95.0215264408383,
        "alt_km": 415.57425161600986,
        "timestamp": "2025-12-08T03:50:05.783512+00:00",
        "meta_object_name": "STARLINK-35444",
        "meta_object_id": "2025-263AC",
        "meta_epoch": "2025-12-07T06:00:04.999968",
        "meta_mean_motion": 15.55010487,
        "meta_eccentricity": 0.00015656,
        "meta_inclination": 43,
        "meta_ra_of_asc_node": 157.1664,
        "meta_arg_of_pericenter": 257.1118,
        "meta_mean_anomaly": 346.3792,
        "meta_ephemeris_type": 0,
        "meta_classification_type": "U",
        "meta_norad_cat_id": 66511,
        "meta_element_set_no": 999,
        "meta_rev_at_epoch": 475,
        "meta_bstar": -0.034363574,
        "meta_mean_motion_dot": -0.02104604,
        "meta_mean_motion_ddot": 0,
        "tle_line1": "1 66511U 25263AC  25341.25005787 -.02104604  00000+0 -34364-1 0  9995",
        "tle_line2": "2 66511  43.0000 157.1664 0001565 257.1118 346.3792 15.55010487  4756"
      },
      "geometry": {
        "type": "Point",
        "coordinates": [
          95.0215264408383,
          -37.9461720669185
        ]
      }
    }
  ]
}